NORAD_CAT_ID,OBJECT_NAME,OBJECT_TYPE,EPOCH,MEAN_MOTION,ECCENTRICITY,INCLINATION,RA_OF_ASC_NODE,ARG_OF_PERICENTER,MEAN_ANOMALY,BSTAR,MEAN_MOTION_DOT,MEAN_MOTION_DDOT,TLE_LINE0,TLE_LINE1,TLE_LINE2,SEMIMAJOR_AXIS,PERIOD,APOGEE,PERIGEE,DECAYED
49740.0,STARLINK-3226,PAYLOAD,2022-04-06 14:00:01,15.08856782,0.0002394,53.2162,102.5961,33.6762,312.6079,-0.00087402,-0.00014178,0.0,0 STARLINK-3226,1 49740U 21115S   22096.58334491 -.00014178  00000-0 -87402-3 0  9997,2 49740  53.2162 102.5961 0002394  33.6762 312.6079 15.08856782  3599,6917.829000000002,95.436,541.35,538.038,0.0
49740.0,STARLINK-3226,PAYLOAD,2022-04-06 22:00:00,15.08832145,0.0002161,53.2164,101.0983,37.8119,320.0924,0.00070292,0.00010914,0.0,0 STARLINK-3226,1 49740U 21115S   22096.91667824  .00010914  00000-0  70292-3 0  9994,2 49740  53.2164 101.0983 0002161  37.8119 320.0924 15.08832145  3570,6917.904,95.438,541.264,538.274,0.0
49740.0,STARLINK-3226,PAYLOAD,2022-04-07 06:00:00,15.08839612,0.0002333,53.2164,99.6036,35.5206,333.9741,-0.0011069,-0.00017862,0.0,0 STARLINK-3226,1 49740U 21115S   22097.25001157 -.00017862  00000-0 -11069-2 0  9990,2 49740  53.2164  99.6036 0002333  35.5206 333.9741 15.08839612 20399,6917.882,95.438,541.361,538.133,0.0
49740.0,STARLINK-3226,PAYLOAD,2022-04-07 14:00:01,15.08847693,0.0002377,53.2161,98.1071,34.081,346.9962,-0.0010484,-0.00016939,0.0,0 STARLINK-3226,1 49740U 21115S   22097.58334491 -.00016939  00000-0 -10484-2 0  9990,2 49740  53.2161  98.1071 0002377  34.0810 346.9962 15.08847693  3615,6917.857,95.437,541.366,538.078,0.0
49740.0,STARLINK-3226,PAYLOAD,2022-04-07 20:00:01,15.08821149,0.0002204,53.2162,96.9836,37.6454,262.1422,0.002821,0.00044872,0.0,0 STARLINK-3226,1 49740U 21115S   22097.83334491  .00044872  00000-0  28210-2 0  9999,2 49740  53.2162  96.9836 0002204  37.6454 262.1422 15.08821149 20485,6917.938,95.439,541.328,538.278,0.0
49740.0,STARLINK-3226,PAYLOAD,2022-04-07 22:00:00,15.08829755,0.0002184,53.2162,96.6094,38.7444,353.9402,0.0022938,0.00036397,0.0,0 STARLINK-3226,1 49740U 21115S   22097.91667824  .00036397  00000-0  22938-2 0  9991,2 49740  53.2162  96.6094 0002184  38.7444 353.9402 15.08829755  3575,6917.9119999999975,95.438,541.288,538.266,0.0
49740.0,STARLINK-3226,PAYLOAD,2022-04-08 14:00:03,15.08847376,0.000237,53.2161,93.618,34.0174,21.9815,-0.00094886,-0.00015361,0.0,0 STARLINK-3226,1 49740U 21115S   22098.58336806 -.00015361  00000-0 -94886-3 0  9990,2 49740  53.2161  93.6180 0002370  34.0174  21.9815 15.08847376 20593,6917.858,95.437,541.362,538.0830000000002,0.0
49740.0,STARLINK-3226,PAYLOAD,2022-04-08 22:00:00,15.08828414,0.000221,53.2162,92.1202,38.259,29.2103,0.0019481,0.00030843,0.0,0 STARLINK-3226,1 49740U 21115S   22098.91667824  .00030843  00000-0  19481-2 0  9991,2 49740  53.2162  92.1202 0002210  38.2590  29.2103 15.08828414  3587,6917.916,95.438,541.31,538.252,0.0
49740.0,STARLINK-3226,PAYLOAD,2022-04-09 14:00:01,15.08837788,0.0002395,53.2164,89.12899999999998,33.5958,57.0413,-0.0013411,-0.00021568,0.0,0 STARLINK-3226,1 49740U 21115S   22099.58334491 -.00021568  00000-0 -13411-2 0  9999,2 49740  53.2164  89.1290 0002395  33.5958  57.0413 15.08837788  3602,6917.887,95.438,541.409,538.095,0.0
49740.0,STARLINK-3226,PAYLOAD,2022-04-09 16:00:00,15.08839453,0.0002313,53.2166,88.7543,34.9478,148.5875,-0.0012453,-0.00020053,0.0,0 STARLINK-3226,1 49740U 21115S   22099.66667824 -.00020053  00000-0 -12453-2 0  9990,2 49740  53.2166  88.7543 0002313  34.9478 148.5875 15.08839453 20756,6917.882,95.438,541.347,538.1469999999998,0.0
49740.0,STARLINK-3226,PAYLOAD,2022-04-09 22:00:00,15.08820455,0.0002263,53.2167,87.6312,38.6709,63.5564,0.0025454,0.00040434,0.0,0 STARLINK-3226,1 49740U 21115S   22099.91667824  .00040434  00000-0  25454-2 0  9996,2 49740  53.2167  87.6312 0002263  38.6709  63.5564 15.08820455  3609,6917.94,95.439,541.371,538.24,0.0
49740.0,STARLINK-3226,PAYLOAD,2022-04-10 06:00:02,15.08846058,0.0002476,53.2168,86.1366,36.4509,77.4329,-0.0002202,-3.792e-05,0.0,0 STARLINK-3226,1 49740U 21115S   22100.25002315 -.00003792  00000-0 -22020-3 0  9999,2 49740  53.2168  86.1366 0002476  36.4509  77.4329 15.08846058 20848,6917.861999999999,95.437,541.44,538.014,0.0
49740.0,STARLINK-3226,PAYLOAD,2022-04-10 14:00:01,15.08874503,0.0002427,53.2168,84.6398,34.8877,90.5296,-0.0043083,-0.00068274,0.0,0 STARLINK-3226,1 49740U 21115S   22100.58334491 -.00068274  00000-0 -43083-2 0  9995,2 49740  53.2168  84.6398 0002427  34.8877  90.5296 15.08874503  3602,6917.775,95.435,541.319,537.961,0.0
49740.0,STARLINK-3226,PAYLOAD,2022-04-10 22:00:00,15.08829529,0.0002257,53.2172,83.1421,38.572,98.4623,0.0025167,0.00039982,0.0,0 STARLINK-3226,1 49740U 21115S   22100.91667824  .00039982  00000-0  25167-2 0  9996,2 49740  53.2172  83.1421 0002257  38.5720  98.4623 15.08829529  3606,6917.9119999999975,95.438,541.339,538.216,0.0
49740.0,STARLINK-3226,PAYLOAD,2022-04-11 14:00:01,15.0884715,0.0002353,53.2171,80.1504,33.5372,126.6815,-0.002473,-0.0003944,0.0,0 STARLINK-3226,1 49740U 21115S   22101.58334491 -.00039440  00000-0 -24730-2 0  9997,2 49740  53.2171  80.1504 0002353  33.5372 126.6815 15.08847150 21044,6917.859,95.437,541.351,538.096,0.0
49740.0,STARLINK-3226,PAYLOAD,2022-04-11 22:00:00,15.08812305,0.000218,53.2175,78.6529,36.6134,135.1926,0.00066211,0.00010257,0.0,0 STARLINK-3226,1 49740U 21115S   22101.91667824  .00010257  00000-0  66211-3 0  9997,2 49740  53.2175  78.6529 0002180  36.6134 135.1926 15.08812305  3597,6917.965,95.439,541.3380000000002,538.322,0.0
49740.0,STARLINK-3226,PAYLOAD,2022-04-12 14:00:01,15.0883465,0.0002305,53.2172,75.6611,33.6752,161.2517,-0.0017574,-0.00028146,0.0,0 STARLINK-3226,1 49740U 21115S   22102.58334491 -.00028146  00000-0 -17574-2 0  9997,2 49740  53.2172  75.6611 0002305  33.6752 161.2517 15.08834650 21194,6917.897,95.438,541.356,538.1669999999998,0.0
49740.0,STARLINK-3226,PAYLOAD,2022-04-12 22:00:00,15.08822532,0.0002184,53.2176,74.164,38.2735,168.2258,0.0014187999999999,0.00022354,0.0,0 STARLINK-3226,1 49740U 21115S   22102.91667824  .00022354  00000-0  14188-2 0  9994,2 49740  53.2176  74.1640 0002184  38.2735 168.2258 15.08822532  3567,6917.934,95.439,541.31,538.288,0.0
49740.0,STARLINK-3226,PAYLOAD,2022-04-13 04:00:00,15.0883777,0.0002355,53.2173,73.0431,35.7292,89.4567,-0.00093384,-0.00015119,0.0,0 STARLINK-3226,1 49740U 21115S   22103.16667824 -.00015119  00000-0 -93384-3 0  9991,2 49740  53.2173  73.0431 0002355  35.7292  89.4567 15.08837770 21286,6917.887,95.438,541.381,538.123,0.0
49740.0,STARLINK-3226,PAYLOAD,2022-04-13 14:00:03,15.08856671,0.0002299,53.2171,71.1717,36.0465,193.7485,-0.0015925999999999,-0.00025558,0.0,0 STARLINK-3226,1 49740U 21115S   22103.58336806 -.00025558  00000-0 -15926-2 0  9993,2 49740  53.2171  71.1717 0002299  36.0465 193.7485 15.08856671  3563,6917.829000000002,95.437,541.285,538.104,0.0
49740.0,STARLINK-3226,PAYLOAD,2022-04-13 22:00:00,15.08851072,0.0002191,53.2173,69.6748,40.849,200.421,0.0011907,0.00018719,0.0,0 STARLINK-3226,1 49740U 21115S   22103.91667824  .00018719  00000-0  11907-2 0  9991,2 49740  53.2173  69.6748 0002191  40.8490 200.4210 15.08851072 21408,6917.847,95.437,541.227,538.196,0.0
49740.0,STARLINK-3226,PAYLOAD,2022-04-14 14:00:01,15.08848943,0.0002248,53.2169,66.6825,36.524,227.9651,-0.0019023,-0.00030444,0.0,0 STARLINK-3226,1 49740U 21115S   22104.58334491 -.00030444  00000-0 -19023-2 0  9994,2 49740  53.2169  66.6825 0002248  36.5240 227.9651 15.08848943 21501,6917.853,95.437,541.273,538.163,0.0
49740.0,STARLINK-3226,PAYLOAD,2022-04-14 22:00:00,15.08848463,0.0002167,53.2172,65.1856,41.3691,234.7149,0.00083929,0.00013098,0.0,0 STARLINK-3226,1 49740U 21115S   22104.91667824  .00013098  00000-0  83929-3 0  9991,2 49740  53.2172  65.1856 0002167  41.3691 234.7149 15.08848463 21557,6917.855,95.437,541.219,538.22,0.0
49740.0,STARLINK-3226,PAYLOAD,2022-04-15 14:00:01,15.08895041,0.0002201,53.217,62.1932,37.76,261.5708,-0.0035061,-0.00055742,0.0,0 STARLINK-3226,1 49740U 21115S   22105.58334491 -.00055742  00000-0 -35061-2 0  9993,2 49740  53.2170  62.1932 0002201  37.7600 261.5708 15.08895041  3592,6917.712,95.434,541.1,538.055,0.0
49740.0,STARLINK-3226,PAYLOAD,2022-04-15 22:00:00,15.08870072,0.0002108,53.2173,60.6964,39.9011,271.0445,-0.00083003,-0.00013485,0.0,0 STARLINK-3226,1 49740U 21115S   22105.91667824 -.00013485  00000-0 -83003-3 0  9997,2 49740  53.2173  60.6964 0002108  39.9011 271.0445 15.08870072  3589,6917.788000000001,95.436,541.112,538.195,0.0
49740.0,STARLINK-3226,PAYLOAD,2022-04-16 06:00:00,15.08841497,0.0002287,53.2174,59.2018,34.0534,288.5182,-0.0029355,-0.00046708,0.0,0 STARLINK-3226,1 49740U 21115S   22106.25001157 -.00046708  00000-0 -29355-2 0  9999,2 49740  53.2174  59.2018 0002287  34.0534 288.5182 15.08841497 21757,6917.876,95.437,541.323,538.159,0.0
49740.0,STARLINK-3226,PAYLOAD,2022-04-16 14:00:01,15.08804752,0.0002171,53.2174,57.7041,34.1558,299.9961,-0.0037494,-0.00059413,0.0,0 STARLINK-3226,1 49740U 21115S   22106.58334491 -.00059413  00000-0 -37494-2 0  9995,2 49740  53.2174  57.7041 0002171  34.1558 299.9961 15.08804752  3591,6917.988,95.44,541.355,538.351,0.0
49740.0,STARLINK-3226,PAYLOAD,2022-04-16 22:00:01,15.08785711,0.000214,53.2178,56.2075,37.9207,307.8117,0.0023437,0.00037154,0.0,0 STARLINK-3226,1 49740U 21115S   22106.91668981  .00037154  00000-0  23437-2 0  9994,2 49740  53.2178  56.2075 0002140  37.9207 307.8117 15.08785711  3599,6918.045999999999,95.441,541.3919999999998,538.431,0.0
49740.0,STARLINK-3226,PAYLOAD,2022-04-17 06:00:00,15.08791775,0.0002357,53.218,54.7132,34.0187,323.2032,0.0027563,0.00043794,0.0,0 STARLINK-3226,1 49740U 21115S   22107.25001157  .00043794  00000-0  27563-2 0  9999,2 49740  53.2180  54.7132 0002357  34.0187 323.2032 15.08791775 21904,6918.028,95.441,541.523,538.262,0.0
